ONEWEB-0264             
1 48982U 21060R   23336.26115646  .00000014  00000+0  43157-5 0  9997
2 48982  87.9094  53.4705 0001672  99.2140 260.9180 13.16596405117493
ONEWEB-0266             
1 48984U 21060T   23336.28332303  .00000103  00000+0  23497-3 0  9994
2 48984  87.9090  53.4492 0001787 104.2019 255.9310 13.16593244117489
ONEWEB-0267             
1 48985U 21060U   23336.67386042  .00001122  00000+0  29014-2 0  9999
2 48985  87.9089  53.3724 0001630 111.2723 248.8582 13.16588982118837
ONEWEB-0268             
1 48986U 21060V   23336.26221558 -.00000003  00000+0 -41325-4 0  9995
2 48986  87.9093  53.4591 0001583 100.4194 259.7115 13.16591602117751
ONEWEB-0269             
1 48987U 21060W   23336.77518658 -.00000085  00000+0 -25474-3 0  9998
2 48987  87.9085  53.3816 0001773 102.8175 257.3154 13.16596230118893
ONEWEB-0270             
1 48988U 21060X   23336.71610283 -.00000102  00000+0 -29993-3 0  9990
2 48988  87.9080  53.3831 0001476 124.3504 235.7767 13.16590906118930
ONEWEB-0271             
1 48989U 21060Y   23336.77940807 -.00000005  00000+0 -47755-4 0  9994
2 48989  87.9089  53.3428 0001325 113.5857 246.5413 13.16596179118921
ONEWEB-0272             
1 48990U 21060Z   23336.27065409  .00000040  00000+0  71831-4 0  9996
2 48990  87.9093  53.4697 0001428 109.2760 250.8526 13.16594217117514
